GLOBALSTAR M094         
1 39074U 13005C   25240.39265128 -.00000082  00000+0  12408-3 0  9999
2 39074  51.9979 322.2753 0000768  95.8366 264.2588 12.62269257581491
GLOBALSTAR M096         
1 39075U 13005D   25240.56411894 -.00000104  00000+0  14793-5 0  9998
2 39075  52.0100  10.3207 0000934  85.0617 275.0357 12.62266155580435
GLOBALSTAR M078         
1 39076U 13005E   25240.53795036 -.00000173  00000+0 -38362-3 0  9992
2 39076  51.9871  94.8140 0001072  20.6419 339.4491 12.62259458579059
GLOBALSTAR M095         
1 39077U 13005F   25240.00962574 -.00000090  00000+0  78829-4 0  9998
2 39077  52.0074  93.6101 0001162  51.3091 308.7880 12.62259678578849
GLOBALSTAR M087         
1 52888U 22064A   25240.18252938 -.00000111  00000+0 -40403-4 0  9995
2 52888  51.9971 234.4994 0000396  55.4619 304.6285 12.62301011154137
